BEIDOU-2 M4             
1 38251U 12018B   26194.43198869 -.00000068  00000+0  00000+0 0  9994
2 38251  55.6338 303.2030 0012087 272.4400  87.4432  1.86229496 96436
ARIRANG-3 (KOMPSAT-3)   
1 38338U 12025B   26195.13099906  .00000190  00000+0  47038-4 0  9990
2 38338  98.1184 152.1285 0006285  41.7001 318.4678 14.62228519755280
METOP-B                 
1 38771U 12049A   26195.14932161  .00000053  00000+0  44067-4 0  9994
2 38771  98.6491 246.1087 0001075 261.8835  98.2221 14.21446205717096
SJ-9A                   
1 38860U 12056A   26195.17535965  .00000527  00000+0  66780-4 0  9997
2 38860  97.6728 166.1542 0025884 165.1046 195.0938 14.85527506703593
COSMOS 2484 (RODNIK-S 6)
1 39059U 13001C   26195.19187971  .00000055  00000+0  32271-3 0  9994
2 39059  82.4994 205.1030 0025697 337.8783  22.1186 12.42940427611916
SARAL                   
1 39086U 13009A   26195.13488975  .00000045  00000+0  32375-4 0  9999
2 39086  98.5554  21.3613 0001635 169.2578 190.8641 14.32895660699460
STRAND-1                
1 39090U 13009E   26195.06912199  .00000136  00000+0  59984-4 0  9992
2 39090  98.3933  14.6434 0009358 144.1848 215.9968 14.37178494700921
BRITE-AUSTRIA           
1 39091U 13009F   26195.02401074  .00000083  00000+0  42766-4 0  9995
2 39091  98.4007  13.7972 0010697 153.9873 206.1854 14.36552238700901
GAOFEN-1                
1 39150U 13018A   26195.17009838  .00000527  00000+0  82819-4 0  9995
2 39150  97.9094 266.6878 0017018 174.4187 185.7216 14.76518852712221
NEE-01 PEGASO           
1 39151U 13018B   26195.19466183  .00001086  00000+0  10814-3 0  9994
2 39151  98.1251 340.2439 0013644  77.3400 282.9343 14.93785831714733
PROBA-V                 
1 39159U 13021A   26194.89758001  .00000019  00000+0  26506-4 0  9996
2 39159  98.3605 172.1880 0005295  63.1260 297.0460 14.23603313684918
ARIRANG-5 (KOMPSAT-5)   
1 39227U 13042A   26194.96886770  .00000769  00000+0  59206-4 0  9993
2 39227  97.6209  21.2936 0005588  62.3144 297.8649 15.04525151707881
GONETS-M 5              
1 39249U 13048A   26195.16185050  .00000017  00000+0  52424-4 0  9990
2 39249  82.4848 326.5645 0017311 151.8033 208.3987 12.42892694582232
GONETS-M 7              
1 39251U 13048C   26195.12431785 -.00000079  00000+0 -63944-3 0  9996
2 39251  82.4914 329.5242 0018082 153.1591 207.0428 12.42915192582184
FENGYUN 3C              
1 39260U 13052A   26195.18237875  .00000022  00000+0  32546-4 0  9992
2 39260  98.4997 167.8202 0013713 309.1054  50.8900 14.15760601662389
CASSIOPE                
1 39265U 13055A   26195.16967332  .00021914 -52811-6  23506-3 0  9999
2 39265  80.9125  33.8905 0283037 331.3754  27.2181 15.27378323671780
APRIZESAT 7             
1 39416U 13066A   26195.12178797  .00000426  00000+0  47577-4 0  9999
2 39416  97.7722 147.9572 0037173 120.7358 239.7531 14.91617848685245
ZACUBE-1 (TSHEPISOSAT)  
1 39417U 13066B   26194.93495080  .00001330  00000+0  10618-3 0  9995
2 39417  97.8009 157.4041 0043958 159.2498 201.0523 15.01325644684741
APRIZESAT 8             
1 39425U 13066K   26195.11288941  .00000382  00000+0  47412-4 0  9990
2 39425  97.8230 142.2076 0045395 195.4638 164.5194 14.87695568683677
TRITON-1                
1 39427U 13066M   26195.17244156  .00000990  00000+0  12352-3 0  9997
2 39427  97.8227 104.3636 0090482 145.3973 215.3174 14.81792558678082
